ONEWEB-0053             
1 45157U 20008AC  23266.66565554  .00000604  00000+0  16943-2 0  9997
2 45157  87.8850 234.3770 0001886  86.4783 273.6560 13.10379142178034
ONEWEB-0054             
1 45158U 20008AD  23266.47231084 -.00000419  00000+0 -12375-2 0  9996
2 45158  87.8844 234.4023 0001916  82.6125 277.5220 13.10368205178126
ONEWEB-0056             
1 45159U 20008AE  23266.45282683  .00000505  00000+0  14111-2 0  9990
2 45159  87.8844 234.4011 0001886  85.6797 274.4546 13.10376674177516
ONEWEB-0057             
1 45160U 20008AF  23266.45933409  .00000267  00000+0  72719-3 0  9995
2 45160  87.8845 234.3931 0002159  87.2485 272.8889 13.10375068177681
ONEWEB-0058             
1 45161U 20008AG  23266.44633401  .00000670  00000+0  18833-2 0  9998
2 45161  87.8853 234.4407 0001991  82.1140 278.0213 13.10378129177753
ONEWEB-0059             
1 45162U 20008AH  23266.44307875  .00000681  00000+0  19148-2 0  9994
2 45162  87.8849 234.4145 0002088  80.1194 280.0169 13.10378855177651
ONEWEB-0062             
1 45163U 20008AJ  23266.62341394 -.00000303  00000+0 -90506-3 0  9990
2 45163  87.8844 234.3660 0001815  82.8613 277.2720 13.10368128178294
ONEWEB-0065             
1 45164U 20008AK  23266.67703854  .00000677  00000+0  19023-2 0  9995
2 45164  87.8852 234.3502 0001892  85.8072 274.3272 13.10374352177987
